IRIDIUM 154             
1 43574U 18061F   26189.99937901  .00000206  00000+0  66341-4 0  9993
2 43574  86.3946  47.6840 0002313  90.2234 269.9227 14.34216725416530
IRIDIUM 163             
1 43575U 18061G   26190.53849970  .00000105  00000+0  30343-4 0  9995
2 43575  86.3938  47.3730 0002166  84.9052 275.2391 14.34216948416585
IRIDIUM 156             
1 43576U 18061H   26190.02475020  .00000230  00000+0  75052-4 0  9996
2 43576  86.3939  47.5951 0002061  90.2486 269.8946 14.34217408416508
IRIDIUM 164             
1 43577U 18061J   26190.56387249  .00000122  00000+0  36382-4 0  9994
2 43577  86.3941  47.4104 0002307  89.7365 270.4095 14.34216708416621
IRIDIUM 159             
1 43578U 18061K   26190.04377707  .00000144  00000+0  44180-4 0  9995
2 43578  86.3939  47.5643 0002184  85.5201 274.6245 14.34217269416518
IRIDIUM 180             
1 43922U 19002A   26190.67119247 -.00000022  00000+0 -14865-4 0  9990
2 43922  86.3984 344.1979 0002122  91.4144 268.7295 14.34216744392219
IRIDIUM 176             
1 43923U 19002B   26189.90874114  .00000556  00000+0  84361-4 0  9994
2 43923  86.6104 344.4566 0002347  89.0399 271.1087 14.72243595402446
IRIDIUM 168             
1 43924U 19002C   26189.82762300  .00000063  00000+0  15366-4 0  9991
2 43924  86.3988 344.6280 0002239  90.6605 269.4847 14.34217854392075
IRIDIUM 173             
1 43925U 19002D   26190.72193022  .00000096  00000+0  27388-4 0  9995
2 43925  86.3984 344.1423 0002196  91.6733 268.4714 14.34218212392184
IRIDIUM 169             
1 43926U 19002E   26189.95362090  .00000184  00000+0  53599-4 0  9993
2 43926  86.4219  16.0905 0001725  97.1413 262.9982 14.38613567393352
IRIDIUM 172             
1 43927U 19002F   26189.94813614  .00000237  00000+0  77418-4 0  9991
2 43927  86.3982 344.4736 0002189  90.6927 269.4520 14.34217146392080
IRIDIUM 175             
1 43928U 19002G   26190.66445950  .00000209  00000+0  55642-4 0  9991
2 43928  86.4515 281.1259 0004977 126.4103 233.7558 14.43625391402220
IRIDIUM 171             
1 43929U 19002H   26190.69656148  .00000165  00000+0  51839-4 0  9993
2 43929  86.3992 344.4693 0002196  94.9593 265.1854 14.34217563392186
IRIDIUM 170             
1 43930U 19002J   26190.66256220  .00000536  00000+0  81046-4 0  9994
2 43930  86.6105 344.1437 0002331  85.5094 274.6389 14.72245014402569
IRIDIUM 167             
1 43931U 19002K   26190.27160783  .00000160  00000+0  50173-4 0  9990
2 43931  86.3985 344.3610 0002202  99.4869 260.6576 14.34217510392120
IRIDIUM 181             
1 56726U 23068S   26190.70783670  .00000194  00000+0  51732-4 0  9996
2 56726  86.4478  47.3734 0002446  84.7248 275.4232 14.43310347165683
IRIDIUM 177             
1 56727U 23068T   26190.29488296  .00000794  00000+0  10150-3 0  9991
2 56727  86.1981 318.2942 0002139  92.5299 267.6166 14.80023851169633
IRIDIUM 174             
1 56728U 23068U   26190.71811876  .00000549  00000+0  83192-4 0  9998
2 56728  86.6113 344.2700 0002067  83.5591 276.5861 14.72253537169337
IRIDIUM 178             
1 56729U 23068V   26189.26968867  .00000564  00000+0  71196-4 0  9998
2 56729  86.6533  16.5481 0002285  87.2958 272.8525 14.80024108169480
IRIDIUM 179             
1 56730U 23068W   26190.00808572  .00000695  00000+0  88516-4 0  9999
2 56730  86.6765  25.2837 0002268  91.1427 269.0054 14.80030703169592
